{
    "links": {
        "self": "http://www.neowsapp.com/rest/v1/neo/54054372?api_key=iIulBulltgU6a56xZRHN4H3l9WmuAYTsLGpBGhQ2"
    },
    "id": "54054372",
    "neo_reference_id": "54054372",
    "name": "(2020 RC8)",
    "designation": "2020 RC8",
    "nasa_jpl_url": "http://ssd.jpl.nasa.gov/sbdb.cgi?sstr=54054372",
    "absolute_magnitude_h": 26.903,
    "estimated_diameter": {
        "kilometers": {
            "estimated_diameter_min": 0.0110650907,
            "estimated_diameter_max": 0.0247422949
        },
        "meters": {
            "estimated_diameter_min": 11.0650906602,
            "estimated_diameter_max": 24.7422948934
        },
        "miles": {
            "estimated_diameter_min": 0.0068755264,
            "estimated_diameter_max": 0.0153741445
        },
        "feet": {
            "estimated_diameter_min": 36.3027920417,
            "estimated_diameter_max": 81.1755107782
        }
    },
    "is_potentially_hazardous_asteroid": false,
    "close_approach_data": [
        {
            "close_approach_date": "2014-07-28",
            "close_approach_date_full": "2014-Jul-28 08:21",
            "epoch_date_close_approach": 1406535660000,
            "relative_velocity": {
                "kilometers_per_second": "5.7166408296",
                "kilometers_per_hour": "20579.9069866849",
                "miles_per_hour": "12787.5538718099"
            },
            "miss_distance": {
                "astronomical": "1.7572205621",
                "lunar": "683.5587986569",
                "kilometers": "262876453.210362727",
                "miles": "163343853.6697785526"
            },
            "orbiting_body": "Juptr"
        },
        {
            "close_approach_date": "2020-09-04",
            "close_approach_date_full": "2020-Sep-04 18:17",
            "epoch_date_close_approach": 1599243420000,
            "relative_velocity": {
                "kilometers_per_second": "10.0841769106",
                "kilometers_per_hour": "36303.0368782615",
                "miles_per_hour": "22557.2953313842"
            },
            "miss_distance": {
                "astronomical": "0.0276114308",
                "lunar": "10.7408465812",
                "kilometers": "4130611.235332396",
                "miles": "2566642.8048272248"
            },
            "orbiting_body": "Earth"
        },
        {
            "close_approach_date": "2020-11-05",
            "close_approach_date_full": "2020-Nov-05 15:27",
            "epoch_date_close_approach": 1604590020000,
            "relative_velocity": {
                "kilometers_per_second": "11.7069779983",
                "kilometers_per_hour": "42145.1207938958",
                "miles_per_hour": "26187.3390844071"
            },
            "miss_distance": {
                "astronomical": "0.0364081369",
                "lunar": "14.1627652541",
                "kilometers": "5446579.730908403",
                "miles": "3384347.7104978414"
            },
            "orbiting_body": "Mars"
        }
    ],
    "orbital_data": {
        "orbit_id": "1",
        "orbit_determination_date": "2020-09-16 18:12:13",
        "first_observation_date": "2020-09-14",
        "last_observation_date": "2020-09-16",
        "data_arc_in_days": 2,
        "observations_used": 14,
        "orbit_uncertainty": "8",
        "minimum_orbit_intersection": ".00353294",
        "jupiter_tisserand_invariant": "3.137",
        "epoch_osculation": "2459107.5",
        "eccentricity": ".6138988613963823",
        "semi_major_axis": "2.564966375408549",
        "inclination": ".3783811859592999",
        "ascending_node_longitude": "83.83543873498812",
        "orbital_period": "1500.447973257681",
        "perihelion_distance": ".9903364380252351",
        "perihelion_argument": "232.4159147268473",
        "aphelion_distance": "4.139596312791863",
        "perihelion_time": "2459077.051037471023",
        "mean_anomaly": "7.305569207196505",
        "mean_motion": ".239928345678251",
        "equinox": "J2000",
        "orbit_class": {
            "orbit_class_type": "APO",
            "orbit_class_description": "Near-Earth asteroid orbits which cross the Earth’s orbit similar to that of 1862 Apollo",
            "orbit_class_range": "a (semi-major axis) > 1.0 AU; q (perihelion) < 1.017 AU"
        }
    },
    "is_sentry_object": false
}